hometownProfessorSK,country,homeAddress,city,state,zipcode
400001,United States of America,437 Warren Roads Suite 124,Markton,New Mexico,1472
400002,United States of America,076 Allen Streets,Josephmouth,Maryland,43702
400003,United States of America,295 Deleon Plain Apt. 752,South Dannyfurt,Vermont,19339
400004,United States of America,077 Lopez Port,Lake John,Michigan,76150
400005,United States of America,76064 Henry Hills,Obrienstad,Tennessee,76168
400006,United States of America,18859 Pearson Center,Warrenbury,Alabama,30210
400007,United States of America,88556 Carr Mountains,Lauriebury,Maine,82089
400008,United States of America,973 Zachary Expressway,South Michelle,Utah,17064
400009,United States of America,35534 Anderson Meadow,Flemington,Virginia,50729
400010,United States of America,5652 Jordan Mountain Suite 925,Robinsonstad,Arizona,86606
400011,United States of America,195 Parks Road Apt. 785,Port Amberborough,Georgia,28037
400012,United States of America,196 Dwayne Track Apt. 906,Port Cindy,Delaware,55655
400013,United States of America,756 Tracy Dale Apt. 968,Beckyburgh,New Hampshire,55558
400014,United States of America,604 Hubbard Roads Apt. 084,North Tracihaven,Ohio,15539
400015,United States of America,165 Ann Squares,Burgessville,Maryland,70713
400016,United States of America,38709 Wesley Manor Apt. 935,Williamshaven,Michigan,62136
400017,United States of America,0368 Sarah Turnpike Suite 964,Troyland,Louisiana,76872
400018,United States of America,7051 Philip Tunnel,Eduardomouth,North Carolina,10138
400019,United States of America,30475 Patricia Knolls,Port Elizabeth,Montana,91896
400020,United States of America,80695 Baker Mount,Lake Abigailchester,Oregon,56609
400021,United States of America,56157 Barker Causeway,Port Peterchester,Arkansas,7041
400022,United States of America,255 Phillips Cape Apt. 977,Lake Jacquelineview,Illinois,94555
400023,United States of America,46338 Chelsea Hollow Apt. 369,New Richard,Montana,76706
400024,United States of America,02259 Austin Viaduct,Wrightton,Missouri,47816
400025,United States of America,6296 Earl Crossing Apt. 350,Port Erica,North Carolina,6993
400026,United States of America,6661 Estrada Alley,Lake Edwardbury,Colorado,11328
400027,United States of America,87683 Rodriguez Square Apt. 206,Robinsonberg,North Carolina,53550
400028,United States of America,31121 Tina Camp Apt. 629,Sheriburgh,Alabama,51107
