hometownStudentSK,country,homeAddress,city,state,zipcode
500001,United States of America,158 Mcmillan Vista Apt. 760,Leeville,Hawaii,47509
500002,United States of America,812 Ross Village Apt. 408,North Sarahhaven,Alaska,64931
500003,United States of America,598 Jesse Mountains,Port Samuelside,Maine,30120
500004,United States of America,98864 Ryan Place Apt. 378,Knoxstad,Indiana,96539
500005,United States of America,8820 Lindsey Mission Suite 704,Amyshire,Washington,23344
500006,United States of America,22208 Mark Loaf,South Stephanie,Kentucky,24656
500007,United States of America,20517 Sara Turnpike,East Jeanette,Minnesota,4765
500008,United States of America,3691 Skinner Lock,South Jacobstad,Vermont,1288
500009,United States of America,749 Oneal Burgs Suite 472,West Hannahport,Georgia,95428
500010,United States of America,758 Brooke Courts,Karitown,Idaho,38020
500011,United States of America,362 Jones Garden,Hallhaven,Maryland,73698
500012,United States of America,27418 Debra Cape Suite 270,New Amandaport,New York,37461
500013,United States of America,534 Strickland Tunnel,Lake Jennifer,Delaware,5924
500014,United States of America,80482 Todd Groves Apt. 635,Cruzville,New Hampshire,42435
500015,United States of America,175 Daniel Land Apt. 579,West Tabitha,Colorado,37945
500016,United States of America,598 Loretta Drive Suite 123,South Michelle,Ohio,21630
500017,United States of America,1736 Theresa Glens,Smithville,Oregon,42829
500018,United States of America,31775 Jennifer Extension Suite 777,Roberthaven,Missouri,42264
500019,United States of America,65284 Christopher Walk Suite 299,North Jenniferfort,Oregon,63390
500020,United States of America,99809 Barrett Motorway,Port Travis,Idaho,49307
500021,United States of America,77458 Jennifer Forks,North Craig,Connecticut,24173
500022,United States of America,548 Douglas Trail Suite 661,East Alfredhaven,West Virginia,81064
500023,United States of America,56714 Smith Walks Suite 858,Bensonshire,North Dakota,30138
500024,United States of America,53532 Michael Place,Huntertown,New Hampshire,16235
500025,United States of America,217 Vargas Burgs,North Amanda,Arizona,18417
500026,United States of America,9330 Gallagher Land,Charlesport,Oregon,46234
500027,United States of America,91503 Williams Trail,South Julieton,Virginia,88239
500028,United States of America,85963 Harris Spurs,North Alison,Maryland,21518
500029,United States of America,91867 Brandon Ridges Suite 477,Reneeview,Louisiana,51083
500030,United States of America,787 Mark Glens,North Whitney,Texas,96534
500031,United States of America,4676 Rachel Ranch,Carriefurt,Arizona,43071
500032,United States of America,27170 Morris Park Apt. 055,Port Laurafort,North Carolina,41444
500033,United States of America,268 Emily Crossroad Apt. 781,Webbbury,South Carolina,52884
500034,United States of America,1953 Stanton Lights Apt. 326,Laurenview,New Mexico,43228
500035,United States of America,15381 Fuller Plains Suite 843,New Edwardhaven,Ohio,69052
500036,United States of America,0868 Franklin Loaf Suite 301,Stewartberg,Hawaii,82188
500037,United States of America,2368 Karen Mission,East Angelaport,Tennessee,82140
500038,United States of America,4968 Brittany Square Apt. 354,Port Jessicaside,Tennessee,5312
500039,United States of America,65521 Collier Avenue,Tammyview,Pennsylvania,3176
500040,United States of America,185 Steven Valley,Stewartburgh,Wyoming,97768
500041,United States of America,5506 Amy Well,East Lindabury,Wyoming,28443
500042,United States of America,047 Monica Village,Lake Jeremy,Vermont,49075
500043,United States of America,2776 Daniel Lakes,Port Bethanystad,Michigan,40937
500044,United States of America,22470 Wood Isle,Davidstad,Michigan,83438
500045,United States of America,6575 Walter Ports Suite 897,West David,Maryland,37347
500046,United States of America,16280 Devin Streets Suite 546,Stoneshire,Texas,84977
500047,United States of America,27380 Garcia Dam Suite 836,Scottchester,Nebraska,48311
500048,United States of America,68470 Armstrong Dam Apt. 902,Castrochester,Arkansas,87945
500049,United States of America,8248 Martinez Route,Port Michelleside,New Hampshire,56308
500050,United States of America,14182 Beasley Summit,West Carol,Idaho,17536
500051,United States of America,0095 Kerri Harbor,East Allen,South Dakota,23741
500052,United States of America,579 Johnson Springs Apt. 544,East Traceyburgh,Montana,14916
500053,United States of America,856 Tricia Ferry Apt. 805,East Josephchester,Colorado,85156
500054,United States of America,0157 Jacobs Parkways Apt. 805,Nancytown,Missouri,25737
500055,United States of America,1682 Foster Club Suite 405,New Jack,Nevada,6842
500056,United States of America,1678 Robert Streets,Nataliechester,Alabama,45704
500057,United States of America,698 Hudson Terrace,Estesburgh,Connecticut,25339
500058,United States of America,776 Snow Camp,Smithtown,Connecticut,50151
500059,United States of America,476 Coleman Track,Lake Reneechester,Nevada,85720
500060,United States of America,081 Hailey Common,Port Craigland,North Dakota,90483
500061,United States of America,6908 Anthony Cape,Reynoldsbury,Maryland,88492
500062,United States of America,7412 Xavier Mount,South Cameronborough,Nebraska,48064
500063,United States of America,64123 Carlos Harbor,North Melissa,Utah,10815
500064,United States of America,4593 Michelle Burgs Suite 433,Ochoafurt,Kansas,72912
500065,United States of America,28060 Fields Turnpike Suite 957,South Jacqueline,Utah,31680
500066,United States of America,688 Lucas Lake Apt. 256,Lake Ronaldstad,Florida,59181
500067,United States of America,8958 Steven River Suite 354,New Marvin,Utah,39660
500068,United States of America,08734 Johnson Ridge Suite 466,Scottmouth,Wisconsin,54593
500069,United States of America,631 Michelle Spurs Apt. 102,Lake Rebeccachester,Wisconsin,86795
500070,United States of America,037 Paul Springs,North Cynthia,Illinois,95145
500071,United States of America,6748 Keith Ridge,Perezburgh,Michigan,48725
500072,United States of America,1795 Schmidt Trafficway Apt. 461,East Rachelbury,Arizona,74629
500073,United States of America,05282 Kimberly Landing Apt. 802,Lake Toni,Nebraska,34472
500074,United States of America,62115 Green Summit Suite 178,Freyview,Wyoming,58592
500075,United States of America,09773 Massey Crest,Jamieview,Vermont,70162
500076,United States of America,6154 Smith Manor,East Matthewburgh,Minnesota,630
500077,United States of America,7817 Benjamin Squares,New Laurenfort,Tennessee,32348
500078,United States of America,141 Burns Mountain,East Jaredmouth,Wisconsin,32424
500079,United States of America,491 Steven Fork,South John,Alaska,58599
500080,United States of America,2646 Allen Loop,Kempstad,Tennessee,31892
500081,United States of America,594 Sharon Forge Apt. 334,Arnoldberg,Texas,81066
500082,United States of America,58786 Edward Shore Apt. 273,East Tom,Missouri,87447
500083,United States of America,54179 Meyer Parkways Apt. 240,East Paul,Utah,18665
500084,United States of America,875 Miller Hills,East Karen,New Jersey,49286
500085,United States of America,334 Angel Manors,Adamsville,Michigan,9692
500086,United States of America,84800 Foster Square,South Pamelatown,Alabama,73527
500087,United States of America,14654 David Islands,Fraziertown,Arizona,94528
500088,United States of America,2055 Sarah Circle Apt. 622,West Autumn,New Hampshire,82797
500089,United States of America,29537 Evans Spurs,Johnburgh,New Hampshire,15292
500090,United States of America,8472 Sanford Meadow,New Lisa,Alabama,86943
500091,United States of America,5324 Evan Oval,Mcdonaldburgh,California,17037
500092,United States of America,058 Hanson Light Apt. 025,South Danielchester,Arkansas,98955
500093,United States of America,20046 John Fall,West Melissaland,Iowa,59676
500094,United States of America,38177 Brooks Summit Apt. 745,East Leslie,Louisiana,2850
500095,United States of America,9321 Andrew Estates,Ashleyburgh,Oregon,75731
500096,United States of America,4059 Vazquez Crescent,South George,Utah,23913
500097,United States of America,919 Moses Walks,Patriciamouth,Massachusetts,44521
500098,United States of America,0749 Laura Trace Suite 460,Goldenport,Rhode Island,10598
500099,United States of America,23172 Allen Court Suite 173,East Barbara,Idaho,13396
500100,United States of America,27668 Waters Ford Apt. 758,New Jodyville,Arkansas,7093
500101,United States of America,136 Robert Unions Apt. 079,Jonesmouth,Virginia,26568
500102,United States of America,876 Torres Viaduct,West Davidshire,Alaska,22001
500103,United States of America,6537 Ryan Valley Suite 374,Lake Christopher,Kentucky,49095
500104,United States of America,411 Williams Skyway,North Thomas,Maine,7080
500105,United States of America,35907 Julia Streets,Cherylberg,Tennessee,66605
500106,United States of America,9352 Mary Fort,East Dawntown,Missouri,47242
500107,United States of America,73013 Cynthia Villages Apt. 799,South Tiffanyborough,Arkansas,30157
500108,United States of America,7378 John Brooks,Brownberg,Hawaii,70103
500109,United States of America,19578 Bennett Crossroad Suite 865,Danaview,Iowa,89898
500110,United States of America,58801 Michelle Club,Holtberg,Maryland,7461
500111,United States of America,0361 Nicole Points Apt. 566,Ortizville,Alaska,30100
500112,United States of America,72252 Jonathan Burg,East Michellehaven,Minnesota,90647
500113,United States of America,97970 Kylie Plain Suite 361,East Michellebury,Montana,93840
500114,United States of America,533 Kathy Junction,South Brett,New York,85039
500115,United States of America,23610 Guerrero Crossing,North Williamberg,New York,87957
500116,United States of America,96534 Gabriel Plaza Apt. 079,Nathanielton,Alaska,80404
500117,United States of America,9469 Melissa Ports,Melissaburgh,Illinois,98653
500118,United States of America,05772 Mcdaniel Village Suite 080,Lake Jennifer,Kentucky,59664
500119,United States of America,3734 Calvin Ports,Cruzfort,Missouri,48174
500120,United States of America,75584 Sarah Points,Fisherbury,Nebraska,80338
500121,United States of America,429 Monica Mill Suite 823,Port Deannamouth,Wyoming,81729
500122,United States of America,0543 Thomas Glen,Morganville,Michigan,2173
500123,United States of America,501 Olson Stream Suite 688,Aaronside,Rhode Island,75987
500124,United States of America,26057 Rose Shore Apt. 908,Kellychester,Kansas,27521
500125,United States of America,463 Ayala Parkway,Wardberg,Delaware,63869
500126,United States of America,5691 Kelly Stravenue,New Kelsey,New York,75043
500127,United States of America,62081 Doyle Lakes Suite 514,Robertmouth,Nevada,92279
500128,United States of America,977 Ana Shoal Suite 850,Benjaminhaven,Florida,97444
500129,United States of America,41347 Emily Rue,New Brad,South Dakota,71554
500130,United States of America,533 Edward Row,New Jennifer,South Dakota,97515
500131,United States of America,70130 Rhodes Place Apt. 716,New Makayla,Wisconsin,14789
500132,United States of America,93719 Rodriguez Mews,Griffinbury,Texas,53057
500133,United States of America,301 Kimberly Mill Suite 399,Christopherborough,California,30501
500134,United States of America,150 Robin Mount Suite 198,New Johnchester,Tennessee,81473
500135,United States of America,0006 Mary Valley Suite 200,Millerland,Kentucky,82611
500136,United States of America,291 Brown Mountains Apt. 498,Johnland,Hawaii,46909
500137,United States of America,3372 Thomas Fork Apt. 985,Thomasmouth,Oklahoma,88013
500138,United States of America,8100 Paul View,West Tracy,South Carolina,94872
500139,United States of America,28771 Villanueva Highway Suite 507,New Alicia,Delaware,34951
500140,United States of America,790 Blanchard Place Apt. 405,Michaelborough,Idaho,96969
500141,United States of America,2910 Valerie Mountain Apt. 170,Lake Michelleshire,California,26915
500142,United States of America,530 Perkins Square,Priceside,Oregon,35090
500143,United States of America,483 Kirk Springs Suite 317,Youngchester,Mississippi,25930
500144,United States of America,132 Sandra Trail Apt. 065,South Lori,Nevada,35150
500145,United States of America,76689 Nicholas Haven,Lake Shawnside,Georgia,42041
500146,United States of America,084 Ellen Drives,Lake Lisaville,Ohio,95514
500147,United States of America,115 Kurt Knolls Suite 447,East Raven,Vermont,53537
500148,United States of America,7238 Smith Summit Suite 881,Port Glennside,Hawaii,64147
500149,United States of America,1949 Hall Locks Suite 018,South Marissaville,Virginia,21535
500150,United States of America,254 Daniel Brooks,Jacksonland,Wisconsin,91132
500151,United States of America,09302 Peck Mill,New Rebeccamouth,Kentucky,28601
500152,United States of America,0918 Samuel Lakes,Martinhaven,Utah,10362
500153,United States of America,103 Rebecca Trail Suite 968,Duranland,Rhode Island,12078
500154,United States of America,78851 Huff Inlet Apt. 280,Brownton,Illinois,40156
500155,United States of America,0816 Jeremy Drives Suite 846,South Annastad,Alaska,10623
500156,United States of America,1255 Smith Corners,Port Mary,Maryland,81541
500157,United States of America,937 Walker Forks Apt. 572,Joshuashire,Iowa,89061
500158,United States of America,9269 Barker Hills Apt. 901,Bryanfort,Maryland,57817
500159,United States of America,1510 Teresa Extensions,New Ruthport,Ohio,72549
500160,United States of America,762 Carl Forges,New Amberside,Utah,64552
500161,United States of America,67131 Brenda Point Apt. 477,Steveside,Vermont,69829
500162,United States of America,89665 Brittany Avenue Suite 477,Rickyshire,Kansas,13226
500163,United States of America,8920 Ronald Points,Youngborough,Utah,48150
500164,United States of America,9565 Davis Row,East Tyler,Idaho,9198
500165,United States of America,863 Steven Road Apt. 418,New Jeremy,Louisiana,42573
500166,United States of America,63239 Juan Circles,Lake Kimberlyport,South Dakota,61530
500167,United States of America,0351 Wilkins Throughway Suite 323,Kylechester,Utah,55835
500168,United States of America,240 Jackson Corners,Port Crystalland,Idaho,25897
500169,United States of America,427 Wilson Hollow,Lake Nicholas,Tennessee,31903
500170,United States of America,021 Anthony Springs,Boydshire,California,26963
500171,United States of America,0432 Oneill Villages,South Shawnton,Virginia,29630
500172,United States of America,05318 Christopher Alley,North Robertbury,South Dakota,98133
500173,United States of America,3965 Justin Grove Apt. 028,West Meagan,South Carolina,77322
500174,United States of America,973 Jones Forks Apt. 524,Pattersonview,New York,69318
500175,United States of America,55423 Young Roads Apt. 859,West Hannah,Louisiana,24289
500176,United States of America,122 Christian Prairie Apt. 075,Lake Amandaville,New Jersey,81486
500177,United States of America,0933 Andrew Ranch Suite 412,Lake Michael,Georgia,92682
500178,United States of America,3852 Lewis Fields Suite 653,Whiteview,Oklahoma,1005
500179,United States of America,82929 Rodriguez Plaza Apt. 432,Petersonview,Minnesota,17128
500180,United States of America,4722 Stevens Trace Apt. 071,West Carlaton,New Mexico,84017
500181,United States of America,87732 Jaime Drives,Lake Andreafurt,Iowa,53681
500182,United States of America,6018 Bradley Garden Suite 237,East Jason,Oregon,16614
500183,United States of America,46100 Smith Inlet,South Ethan,Utah,60291
500184,United States of America,0079 Tara Lodge Apt. 654,Elizabethland,Connecticut,64631
500185,United States of America,373 Patrick Radial,South Matthew,New Hampshire,69489
500186,United States of America,29888 John Roads Suite 322,Feliciatown,Ohio,47666
500187,United States of America,422 Erik Views Apt. 677,New Jessica,New Mexico,41817
500188,United States of America,860 Jimenez Neck,Nicolebury,Colorado,97309
500189,United States of America,53901 Karen Course Suite 306,Brownfort,Washington,5596
500190,United States of America,683 Cross Drive Suite 404,South Chloechester,Michigan,64882
500191,United States of America,6664 Harris Fall,Johnmouth,Massachusetts,11315
500192,United States of America,48290 Rodriguez Haven Apt. 970,East Johnfort,Massachusetts,62866
500193,United States of America,935 Williams Heights Apt. 279,West Jeromebury,Maine,14911
500194,United States of America,7976 Diaz Mountain,North Johnmouth,Alaska,53294
500195,United States of America,144 Andrew Squares Suite 148,Colinland,Oklahoma,42167
500196,United States of America,179 Jones Cliffs,East Leslie,Rhode Island,56461
500197,United States of America,5063 Yoder Garden Apt. 872,New Erin,Arkansas,33917
500198,United States of America,55444 Fuentes Way Suite 617,Torresstad,Arizona,90310
500199,United States of America,31166 Jesse Roads,Loganfort,Alaska,29259
500200,United States of America,866 Thomas Forks,North Donaldton,North Carolina,32114
500201,United States of America,56025 Dillon Track Suite 146,New Julia,Nebraska,56681
500202,United States of America,861 Mcguire Ramp Suite 848,Timothyfurt,Vermont,8505
500203,United States of America,287 Gardner Plaza Apt. 495,Stephanieton,Utah,1936
500204,United States of America,3931 Harris Freeway,Jeremybury,West Virginia,47833
500205,United States of America,64280 Vincent Fall Suite 363,New Christopherburgh,Arizona,29600
500206,United States of America,93266 Wilson Manors Apt. 911,North Bryanport,Illinois,69786
500207,United States of America,941 Katherine Terrace,Johnborough,South Carolina,10517
500208,United States of America,62141 Williams Gateway Apt. 153,Bakermouth,Oklahoma,62513
500209,United States of America,1828 Green Lodge Suite 934,East Karen,Iowa,45759
500210,United States of America,93394 Jones Plains Suite 806,Rhodesbury,Maine,1066
500211,United States of America,447 Elliott Dam Apt. 331,Lake Annette,Delaware,30327
500212,United States of America,581 Jeremy Avenue,Port Brendamouth,Indiana,95597
500213,United States of America,92280 Chavez Corner Apt. 332,East Lucas,Kentucky,69789
500214,United States of America,42242 Jones Locks Apt. 464,Thomasberg,South Carolina,9021
500215,United States of America,9468 Hensley Green Apt. 423,West Frederickhaven,New Mexico,38280
500216,United States of America,99655 Mckinney Coves,Schwartzberg,Nebraska,35838
500217,United States of America,57116 Bradley Orchard Apt. 017,Lake Amanda,Indiana,83693
500218,United States of America,539 Hampton Ports Apt. 956,North Suzanneberg,Maryland,16853
500219,United States of America,388 Rogers Inlet,South Brianshire,Maryland,64877
500220,United States of America,51787 Mooney Isle,Mullinstown,Michigan,44056
500221,United States of America,83035 Quinn Rapid Apt. 006,Lisaside,Arizona,73485
500222,United States of America,706 King Crossing Suite 444,Glenport,Oregon,96218
500223,United States of America,380 Davis Court Apt. 545,Middletonview,Wisconsin,79591
500224,United States of America,88994 Morris Street,Michelleborough,Montana,5495
500225,United States of America,255 Michael Street Suite 113,West Meganbury,Hawaii,3122
500226,United States of America,5331 Perez Dale Apt. 197,West John,West Virginia,59440
500227,United States of America,81756 Dillon Ville,Lake Brandy,Wyoming,71062
500228,United States of America,652 Black Manors Suite 763,Port Andrewberg,Maine,36360
500229,United States of America,207 Ryan Union,Ramirezborough,Pennsylvania,16473
500230,United States of America,073 Poole Motorway,Jamesstad,Kansas,29481
500231,United States of America,92910 Robert Mission Apt. 444,Watsonside,Alabama,23408
500232,United States of America,0599 Duncan Mills Suite 513,Ballardburgh,Maryland,59111
500233,United States of America,18074 Jessica Trace Suite 453,Jamiestad,Colorado,64522
500234,United States of America,589 Stevens Loop,Port Julie,Pennsylvania,6042
500235,United States of America,81016 Robert Key Apt. 099,Samuelmouth,New York,46312
500236,United States of America,75230 Banks Greens Apt. 281,Alejandromouth,South Carolina,58201
500237,United States of America,5737 Stephanie Port Suite 747,Jessicachester,New Hampshire,7258
500238,United States of America,9590 Maureen Pines,Ryanchester,Colorado,66058
500239,United States of America,3988 Robinson Valleys,Longhaven,New Mexico,59065
500240,United States of America,3308 Julia Cape Apt. 613,North Kathy,Oklahoma,30726
500241,United States of America,303 Rebecca Ports Apt. 353,Ruizland,Oregon,57289
500242,United States of America,8564 Lin Lane,Joshuafurt,Michigan,34362
500243,United States of America,7398 Amanda Island,South Erikaborough,Mississippi,45528
500244,United States of America,0742 Benjamin Corners,Lake Blakeview,Ohio,93465
500245,United States of America,8670 Jason Road,Frankfort,South Carolina,76256
500246,United States of America,19229 Cook Fields,Williamsland,Delaware,34043
500247,United States of America,6510 Mills Branch,Turnerchester,Connecticut,27092
500248,United States of America,11432 Nancy Prairie Suite 195,East Jennifer,Texas,28393
500249,United States of America,4230 Kara Estate Suite 742,South Claytonmouth,Delaware,27195
500250,United States of America,58198 Smith Loaf,West Zachary,New Hampshire,12705
500251,United States of America,18502 Dustin Port,Johnmouth,Kansas,57840
500252,United States of America,95777 Jennifer Bridge Apt. 240,Scottport,Missouri,28563
500253,United States of America,6042 Keith Stravenue Apt. 861,Simmonshaven,Colorado,21229
500254,United States of America,02692 Clayton Fall,Davidchester,North Carolina,24184
500255,United States of America,650 Stewart Stravenue,North Amberton,Rhode Island,18212
500256,United States of America,60183 Griffin Drive Apt. 040,Fordborough,Nebraska,55629
500257,United States of America,83075 Molina Point,South Seanbury,Missouri,97749
500258,United States of America,97649 Fisher Cliff Apt. 697,East Shelley,Kentucky,19166
500259,United States of America,97678 Horton Plaza Apt. 324,Courtneyburgh,Virginia,60067
500260,United States of America,7948 Cheryl Stream,Randytown,Colorado,93217
500261,United States of America,796 Carter Causeway,Ramirezmouth,Utah,82774
500262,United States of America,995 Miller Centers Apt. 198,North John,Tennessee,46258
500263,United States of America,3541 Mitchell Meadow,Paigemouth,Kentucky,82269
500264,United States of America,1465 Cohen Hollow,New Richardport,Arkansas,99852
500265,United States of America,38153 Shannon Rue,Port Donnatown,Washington,43829
500266,United States of America,803 Lauren Row Apt. 757,Romeroside,Maine,50066
500267,United States of America,149 Rachel Vista,North Jacquelineborough,Nevada,46735
500268,United States of America,86102 Charlotte Route Apt. 694,New Christopherborough,California,38912
500269,United States of America,70184 Donald Union,Port Lisa,Nevada,21335
500270,United States of America,5449 Cortez Expressway Apt. 341,South Karenton,Illinois,52065
500271,United States of America,44568 Stark Parkways Suite 329,Andrewchester,Minnesota,55372
500272,United States of America,824 Jones Drive,South Brendamouth,New Hampshire,86206
500273,United States of America,8144 Sawyer Bridge Apt. 321,Roberttown,North Dakota,8949
500274,United States of America,39139 Ray Pike,Williamborough,Indiana,18759
500275,United States of America,8289 Aaron Trail Apt. 598,Walkerview,New Mexico,55638
500276,United States of America,1360 Francisco Street Apt. 546,West Paul,Wisconsin,65231
500277,United States of America,4664 Kimberly Loaf Apt. 271,Lake Carlport,Rhode Island,45375
500278,United States of America,432 Stewart Forks Apt. 032,West Derekstad,Kentucky,23611
500279,United States of America,165 Derrick Hill,Deniseberg,Maine,43022
500280,United States of America,9576 Chen Flats Suite 265,Zacharyview,California,23659
500281,United States of America,718 Davis Coves Apt. 085,Port Carmen,North Dakota,26447
500282,United States of America,1315 Sheri Wells Apt. 530,West Tabitha,Utah,29858
500283,United States of America,71786 Angela Brooks Suite 169,North April,Wisconsin,11974
500284,United States of America,13639 Heather Estate,South Karaport,Nebraska,515
500285,United States of America,22415 Ewing Walks Apt. 092,New Heatherfurt,Minnesota,68550
500286,United States of America,8457 Elizabeth Trafficway,Melindaville,Georgia,46661
500287,United States of America,865 Taylor Corner Apt. 224,North Michael,New Mexico,23493
500288,United States of America,86353 Jennifer Forges Suite 035,Longville,Oregon,12216
500289,United States of America,247 Meredith Village Apt. 179,New Brittanyshire,Ohio,51610
500290,United States of America,0485 Morris Meadow,Davisburgh,Wisconsin,11402
500291,United States of America,1752 Jesse Alley,Amymouth,North Dakota,87750
500292,United States of America,0103 Christy Landing,North Michael,Idaho,68815
500293,United States of America,864 Jones Locks,Thomaschester,Mississippi,3634
500294,United States of America,6831 Kristina Lane Suite 543,Kennedystad,California,75260
500295,United States of America,20161 Jesse Mountains,Colemanbury,Indiana,69489
500296,United States of America,7124 Tracy Fall,Anthonybury,Colorado,92639
500297,United States of America,50150 Edwards Highway,North Theresa,Maryland,89601
500298,United States of America,4798 Smith Rapids,Riveraview,Texas,93920
500299,United States of America,867 Thomas Island,South Timothy,New Jersey,59820
500300,United States of America,380 Greer Ferry Apt. 398,Markchester,Rhode Island,2350
500301,United States of America,878 Roberts Bridge Apt. 669,Lopezmouth,North Carolina,1572
500302,United States of America,8765 Greg Cliff Suite 964,South Leslie,Michigan,55281
500303,United States of America,9226 Rodriguez Highway Suite 247,South Aprilville,West Virginia,50441
500304,United States of America,29420 Alexis Freeway,Jenniferhaven,Wyoming,45347
500305,United States of America,25586 Perez Gardens Suite 781,New Vickiborough,Maryland,22943
500306,United States of America,70306 Richardson Mountains,Roystad,Texas,10534
500307,United States of America,637 Baker Motorway,Taylorside,Alaska,70136
500308,United States of America,50944 Miles Court,Melissaton,Illinois,30085
500309,United States of America,97569 Joshua Greens Apt. 802,New Richardberg,Texas,46494
500310,United States of America,098 Gates Track Apt. 057,Johnside,Indiana,6802
500311,United States of America,0454 Jeremiah Island Suite 685,Jayberg,Missouri,90881
500312,United States of America,696 Mitchell Isle,Vargaston,Wisconsin,85527
500313,United States of America,56843 Julie Curve,South Timothy,South Carolina,25204
500314,United States of America,8249 Emily Green,Andreberg,South Carolina,55161
500315,United States of America,458 Collier Prairie,Port Peterport,Missouri,77550
500316,United States of America,42760 Allen Via,Kellyburgh,Wisconsin,57654
500317,United States of America,8367 Reed Shoals,North Rachel,Kansas,71643
500318,United States of America,460 Olsen Camp,South Thomas,North Carolina,43785
500319,United States of America,391 Julia Squares Suite 442,Hernandezberg,Maine,10708
500320,United States of America,4742 Moore Brook Suite 877,East Gerald,Illinois,53441
500321,United States of America,03756 Heath Crossing,North Christopherfort,South Carolina,94010
500322,United States of America,9254 Baker Motorway,East Patrick,Maine,18676
500323,United States of America,11907 Wade Wall,Karenville,Florida,92760
500324,United States of America,59494 Blackwell Camp,Darylside,Delaware,53501
500325,United States of America,4449 Hall Squares Suite 555,South Andrew,Virginia,73178
500326,United States of America,2572 Mclaughlin Spring Apt. 274,West Christine,Rhode Island,70509
500327,United States of America,34773 David Island Suite 578,North Kayla,Kansas,78939
500328,United States of America,550 Dunn Viaduct,South Jasmineview,New York,2102
500329,United States of America,6102 Cervantes Summit,Lake Allison,Kansas,75422
500330,United States of America,50482 Mills Motorway Suite 237,Stevenbury,New Hampshire,47255
500331,United States of America,6561 Taylor Brooks,Rachelmouth,Kentucky,84295
500332,United States of America,649 Michaela Parks Suite 313,Port Latoya,South Dakota,32163
500333,United States of America,001 Bowman Plaza Apt. 027,Port Ashley,Connecticut,75447
500334,United States of America,2398 Laurie Centers,Kathyberg,South Dakota,27161
500335,United States of America,729 Tina Ridges,Cobbfort,California,14799
500336,United States of America,947 Clark Shores,Port Samantha,Kansas,8852
500337,United States of America,0762 Fisher Expressway,Stephentown,Montana,31121
500338,United States of America,25976 Grant Extension Suite 059,Lopezborough,Kansas,19727
500339,United States of America,1104 Alex Shoal Apt. 158,Lake Nancy,West Virginia,62141
500340,United States of America,511 Charles Mill Suite 242,West Kathleen,Ohio,92953
500341,United States of America,853 Melissa Road Apt. 886,West Lori,Nevada,19963
500342,United States of America,26281 Wong Circles Apt. 096,Johnstonberg,Massachusetts,56999
500343,United States of America,42108 Bradley Creek,North Michelle,New York,71703
500344,United States of America,345 Parsons Expressway Suite 233,Port Jennifer,Utah,12348
500345,United States of America,503 Ann Estates Apt. 771,Port Bretthaven,Mississippi,99216
500346,United States of America,278 May Forge,Port Jennifer,Wisconsin,87208
500347,United States of America,42681 Leblanc Branch Suite 165,Joshuaborough,Florida,42401
500348,United States of America,889 Elizabeth Villages,Bryanberg,Hawaii,57656
500349,United States of America,622 Hayden Fall,Lake Ryanchester,Idaho,26281
500350,United States of America,0772 Jackson Highway Suite 621,Johnport,Wyoming,67393
500351,United States of America,2695 Mccoy Groves,West Bradley,Utah,60147
500352,United States of America,878 Sanders Brook,Bullockmouth,New Hampshire,25833
500353,United States of America,1644 Sarah Shore,Andreaside,Illinois,94014
500354,United States of America,559 Terry Knolls Suite 005,New Georgeburgh,Oklahoma,42239
500355,United States of America,645 Valerie Club,New Jennifer,New Jersey,89947
500356,United States of America,2095 Romero Estates,North Katieton,Oklahoma,40106
500357,United States of America,04286 Patel Dam Apt. 500,Russellfort,New Mexico,52067
500358,United States of America,8152 Smith Harbors Suite 734,Howardmouth,New Jersey,60361
500359,United States of America,27584 Allen Stream,Wardville,Connecticut,93275
500360,United States of America,919 Raymond Track,Bradleyhaven,Oregon,78204
500361,United States of America,58050 Miller Mews Suite 717,Woodchester,Alabama,75762
500362,United States of America,65530 Andrew Wall,South Nathanside,Arkansas,43784
500363,United States of America,62534 Natalie Mountains Apt. 749,Jacobstad,Colorado,77767
500364,United States of America,43712 Odonnell Roads Suite 081,Lawsonside,North Dakota,92121
500365,United States of America,8083 Kristin Hills,North Carolynside,Maine,13842
500366,United States of America,514 Simmons Mountain Suite 353,North Adam,New Hampshire,83449
500367,United States of America,334 Daniel Square,Lake Andrewfurt,Wisconsin,77688
500368,United States of America,7177 James Prairie Apt. 160,Port Davidtown,Georgia,7617
500369,United States of America,16161 Garcia Forks Apt. 123,East Jerryton,North Dakota,20584
500370,United States of America,6330 William Tunnel,Petersport,Ohio,6055
500371,United States of America,390 Jonathan Brooks,Jessicaburgh,Washington,72268
500372,United States of America,8769 Steven Canyon Suite 499,New Karen,North Carolina,42045
500373,United States of America,61292 James Oval,Port Ashley,Louisiana,7827
500374,United States of America,779 Jacqueline Station Apt. 534,East Kenneth,Illinois,66351
500375,United States of America,4641 Porter View,Lake Christopher,Arkansas,20518
500376,United States of America,079 Scott Avenue Suite 499,West Sarah,Colorado,91691
500377,United States of America,21124 Philip Wall Suite 454,North Tylerport,Indiana,28339
500378,United States of America,64992 Guerrero Freeway,Justinton,Kansas,18289
500379,United States of America,20785 Richard Forest,Port Ashleyberg,Arkansas,20303
500380,United States of America,359 Williams Glens Suite 610,Rosefurt,Vermont,37357
500381,United States of America,0024 Andrew Road Apt. 803,Thompsonview,Louisiana,89729
500382,United States of America,81448 Long Trail Suite 247,Hendersonport,New Mexico,94745
500383,United States of America,69114 Bond Passage Suite 590,West Michael,North Carolina,80270
500384,United States of America,46640 Smith Rest Apt. 542,Meghanburgh,Alabama,43606
500385,United States of America,414 Marshall Views,East Daniel,Minnesota,51305
500386,United States of America,9887 Malone Ways,South Williamland,New Mexico,6520
500387,United States of America,7797 Black Curve,Port Jennaberg,Wisconsin,87028
500388,United States of America,65051 Cruz Squares Apt. 238,Port Jeanberg,South Dakota,82382
500389,United States of America,26526 Bryan Well,New Latasha,Oregon,34751
500390,United States of America,29017 Courtney Locks,Port Melissatown,Kentucky,87756
500391,United States of America,65111 Anthony Mount Apt. 429,Bullockhaven,North Carolina,21187
500392,United States of America,316 Garcia Underpass,West Frank,California,70353
500393,United States of America,376 Bryan Divide,Andersonport,Maryland,68226
500394,United States of America,139 Jennifer Streets Suite 987,Nathanborough,Arizona,82771
500395,United States of America,50199 Susan Lane,Maryburgh,Alabama,63429
500396,United States of America,8839 Matthew Wells Suite 745,Myersmouth,Louisiana,48253
500397,United States of America,26712 Rodriguez Centers Suite 784,Lake Cindyton,New Mexico,4388
500398,United States of America,01631 Christine Rest Suite 090,Andersonchester,Nebraska,58369
500399,United States of America,182 Ward Coves Apt. 750,Valdezmouth,Montana,51851
500400,United States of America,6275 Long Greens Suite 888,Greggborough,Missouri,35287
500401,United States of America,326 Kathryn Flats,Barbarashire,South Dakota,87212
500402,United States of America,9535 Natalie Mission Suite 086,North Renee,Virginia,95737
500403,United States of America,2006 Lisa Inlet,East Kristy,Louisiana,52079
500404,United States of America,9214 Wilson Roads,Port Christopherton,West Virginia,73379
500405,United States of America,60855 Amber Throughway Apt. 083,Lake Michaelview,Oklahoma,22484
500406,United States of America,94925 West Grove Suite 070,North Sarahborough,Idaho,86774
500407,United States of America,16911 Seth Valley,East Kenneth,New Hampshire,70417
500408,United States of America,44668 Bennett Mountains,Markview,West Virginia,88609
500409,United States of America,708 Jamie Squares Suite 907,Fordbury,Kentucky,91707
500410,United States of America,568 Love Brook Apt. 236,Hammondport,Idaho,36997
500411,United States of America,42800 Lynch Vista Suite 653,Port Lawrencebury,Vermont,10884
500412,United States of America,3856 Johnson Harbor,Port Darrylmouth,Wisconsin,30384
500413,United States of America,558 Morris Vista,Tiffanyview,Minnesota,98771
500414,United States of America,620 Perry Cape,West Ralph,New Hampshire,50850
500415,United States of America,3115 Breanna Mall,Gallowayfort,Wyoming,25716
500416,United States of America,858 Hayes Park Apt. 444,Adrianland,Wyoming,78631
500417,United States of America,39451 Elizabeth Mission,Lake Patricia,Florida,7807
500418,United States of America,9074 Brooks Valleys Suite 606,Lake Ericshire,Arizona,48440
500419,United States of America,77285 Parker Freeway Apt. 083,Marytown,Utah,15239
500420,United States of America,4355 Abbott Flat Apt. 119,Melissashire,Washington,60927
500421,United States of America,24410 Solis Well Apt. 714,West Hunter,Alabama,90563
500422,United States of America,4942 Adams Manors Apt. 303,Patrickfurt,West Virginia,45849
500423,United States of America,1868 Miller Road,Cheyennefort,Kentucky,57775
500424,United States of America,43695 Moreno Lodge Suite 278,Juliashire,California,38418
500425,United States of America,9646 Roberts Estates Suite 779,Costatown,New Jersey,87988
500426,United States of America,856 Ford Trace Suite 979,South Thomas,New Hampshire,19039
500427,United States of America,038 Taylor Rest,West Anthonyton,Connecticut,89022
500428,United States of America,972 Webster Burg Apt. 684,Scotthaven,North Dakota,93474
500429,United States of America,46599 Kenneth Loop Suite 435,Maryfort,New Jersey,6822
500430,United States of America,86752 John Rapids,North Marcus,Ohio,84270
500431,United States of America,361 Christina Mission Apt. 657,West Alexandrahaven,Idaho,10132
500432,United States of America,8234 Jennifer Ferry,Adamfort,Arkansas,11658
500433,United States of America,60171 Torres Ways Suite 346,Rebeccaberg,Illinois,41202
500434,United States of America,599 Williams Haven Apt. 805,Reneetown,Ohio,21657
500435,United States of America,15999 Thomas Village,Smithberg,Michigan,25401
500436,United States of America,8013 Orr Groves Suite 081,Maryborough,Hawaii,90509
500437,United States of America,7855 Jeffrey Fork,Port Christianfurt,Pennsylvania,18557
500438,United States of America,4934 Johnny Crest,South Holly,Virginia,86808
500439,United States of America,63050 Daniel Gardens Suite 469,Hermanhaven,California,98927
500440,United States of America,80228 Jackson Place Apt. 697,South Brandy,Delaware,63745
500441,United States of America,7847 Hernandez Hill Suite 885,Lake Kylehaven,Florida,48612
500442,United States of America,729 Jeffrey Highway Apt. 363,Port Thomas,Alaska,58135
500443,United States of America,300 Gamble Radial Suite 124,Allenhaven,Connecticut,18480
500444,United States of America,2674 Mendoza Throughway,Limouth,Utah,4821
500445,United States of America,72994 Harrison Mews,Port Lonnie,Rhode Island,8740
500446,United States of America,90261 Eric Shoal,South Amanda,Kentucky,26563
500447,United States of America,28141 Bobby Highway,Hernandezshire,Wisconsin,39112
500448,United States of America,73892 Brenda Wall,South Joshua,Maine,89169
500449,United States of America,098 Watson Hollow Apt. 963,West Heathermouth,Texas,3651
500450,United States of America,281 Jessica Extension Apt. 638,South Connieborough,Illinois,86979
500451,United States of America,925 Teresa Mills Suite 845,New Juliemouth,Vermont,98674
500452,United States of America,25639 Brown Via Suite 541,Riveraville,New Mexico,60370
500453,United States of America,099 Joseph Via Suite 087,Meyerton,Rhode Island,92891
500454,United States of America,6987 Richard Crest Suite 594,Washingtonburgh,South Carolina,31173
500455,United States of America,956 Marshall Falls,Anthonyville,Massachusetts,36851
500456,United States of America,9438 Rush Brooks Apt. 415,Carolynstad,Texas,8966
500457,United States of America,292 Nancy Highway,Tuckerchester,South Dakota,67359
500458,United States of America,2334 Jennifer Divide Apt. 147,Lake Brenda,Wisconsin,53743
500459,United States of America,360 Carla Well,Ronnieberg,South Dakota,84638
500460,United States of America,6014 Steven Canyon Apt. 479,Smithfort,New Jersey,7243
500461,United States of America,8296 Amy Trace Apt. 445,Port Laurie,Maryland,53950
500462,United States of America,100 Rachel Estate,Glenburgh,Louisiana,96050
500463,United States of America,8589 James Falls,Masonhaven,Kentucky,58692
500464,United States of America,0910 Mandy Roads Suite 183,East David,Louisiana,37719
500465,United States of America,5218 Jones Hollow Suite 204,Lewisfort,New Hampshire,93344
500466,United States of America,0199 Dalton Brook Suite 618,Gillchester,Massachusetts,87974
500467,United States of America,0414 Blevins Islands,Lake Vanessa,Delaware,26359
500468,United States of America,15165 Baker Groves,Timothyhaven,Washington,15123
500469,United States of America,405 Smith Corner Suite 829,North Frankshire,Alabama,10215
500470,United States of America,600 Annette Ramp,West Frank,Nevada,96594
500471,United States of America,970 Lynn Burg Suite 123,Davidmouth,Nevada,67043
500472,United States of America,63178 Gabrielle Mountains Apt. 999,Lake Thomasview,Kentucky,3433
500473,United States of America,42112 Jennifer Road,Moorehaven,Utah,99563
500474,United States of America,60277 Brett Ville,Nguyenstad,Texas,54379
500475,United States of America,49222 Alan Village,Romanport,Texas,2530
500476,United States of America,62864 Jon Unions,Salinasland,Missouri,20049
500477,United States of America,62639 Strong Stream,Cunninghamville,Oklahoma,19438
500478,United States of America,82905 Arroyo Skyway Suite 245,Stevenmouth,Illinois,74808
500479,United States of America,467 Meyer Pass,Weaverhaven,New Jersey,10530
500480,United States of America,73516 Watson Plains,Amychester,New Jersey,11635
500481,United States of America,72793 Jason Springs,Stephanieside,Arizona,26226
500482,United States of America,29097 Nancy Summit Suite 991,East Jessica,Oklahoma,95184
500483,United States of America,36880 Greg Tunnel Suite 438,Amyhaven,Wyoming,76693
500484,United States of America,35869 Evans Gateway,Lake Howardburgh,New York,7189
500485,United States of America,1632 Bowers Point,Lake Lindsaymouth,South Dakota,23699
500486,United States of America,3087 Robinson Route Apt. 395,Amberhaven,Maine,79340
500487,United States of America,889 Jose Valleys Apt. 095,Lake Nathaniel,Alabama,58262
500488,United States of America,35248 Morris Underpass,Julieberg,New Jersey,2309
500489,United States of America,223 Fitzgerald Fort,Shelleymouth,Iowa,63830
500490,United States of America,845 Pineda Way Apt. 900,Port Melissa,Georgia,25488
500491,United States of America,6388 Jessica Highway,Carrollfurt,Kansas,14415
500492,United States of America,3005 Cheryl Gateway,Port Michelletown,Illinois,39031
500493,United States of America,419 Roach Mews Apt. 693,Calvinhaven,Nevada,39584
500494,United States of America,2592 Price Expressway Suite 154,East Robertfort,Montana,53359
500495,United States of America,97651 Casey Field,Perezberg,South Carolina,52096
500496,United States of America,21316 James Ferry Suite 060,Williamsville,Washington,66383
500497,United States of America,648 Webster Radial Apt. 527,East Anthonyside,North Carolina,15686
500498,United States of America,2043 Michelle Street Apt. 156,New Catherine,Arizona,66181
500499,United States of America,35877 Brenda Roads,Brownborough,Vermont,90338
500500,United States of America,334 Roman Manors,Carolfort,West Virginia,36558
